STARLINK-1741_new
1 16567C 20070AM  21326.14946340 -.00014707  00000-0 -98518-3 0  3261
2 16567  53.0543 358.0841 0001404  59.3317 323.9486 15.06421336    13
STARLINK-1741_old
1 26567C 20070AM  21325.16735821 -.00001609  00000-0 -10781-3 0  3254
2 26567  53.0546   2.4931 0001313  60.9990  33.3358 15.06402679    19
